NORAD_CAT_ID,OBJECT_NAME,OBJECT_TYPE,EPOCH,MEAN_MOTION,ECCENTRICITY,INCLINATION,RA_OF_ASC_NODE,ARG_OF_PERICENTER,MEAN_ANOMALY,BSTAR,MEAN_MOTION_DOT,MEAN_MOTION_DDOT,TLE_LINE0,TLE_LINE1,TLE_LINE2,SEMIMAJOR_AXIS,PERIOD,APOGEE,PERIGEE,DECAYED
51992.0,STARLINK-3643,PAYLOAD,2024-02-04 20:30:21,15.08842566,0.0001272,53.2165,208.1102,86.579,273.5347,0.00010135,1.326e-05,0.0,0 STARLINK-3643,1 51992U 22025AN  24035.85441855  .00001326  00000-0  10135-3 0  9996,2 51992  53.2165 208.1102 0001272  86.5790 273.5347 15.08842566105597,6917.873,95.437,540.617,538.858,0.0
51992.0,STARLINK-3643,PAYLOAD,2024-02-05 04:27:17,15.08839957,0.0001299,53.2169,206.6238,88.3228,271.7912,9.7535e-05,1.265e-05,0.0,0 STARLINK-3643,1 51992U 22025AN  24036.18562092  .00001265  00000-0  97535-4 0  9992,2 51992  53.2169 206.6238 0001299  88.3228 271.7912 15.08839957105643,6917.881,95.438,540.644,538.847,0.0
51992.0,STARLINK-3643,PAYLOAD,2024-02-05 18:45:45,15.08842598,0.0001316,53.2168,203.9473,88.1843,271.93,8.4057e-05,1.05e-05,0.0,0 STARLINK-3643,1 51992U 22025AN  24036.78178001  .00001050  00000-0  84057-4 0  9998,2 51992  53.2168 203.9473 0001316  88.1843 271.9300 15.08842598105732,6917.872,95.437,540.648,538.827,0.0
51992.0,STARLINK-3643,PAYLOAD,2024-02-06 10:39:37,15.08843237,0.0001352,53.2168,200.9738,87.6491,272.4656,5.2433e-05,5.47e-06,0.0,0 STARLINK-3643,1 51992U 22025AN  24037.44418004  .00000547  00000-0  52433-4 0  9995,2 51992  53.2168 200.9738 0001352  87.6491 272.4656 15.08843237107380,6917.87,95.437,540.671,538.8,0.0
51992.0,STARLINK-3643,PAYLOAD,2024-02-06 17:01:09,15.08846529,0.0001317,53.2165,199.7841,88.1352,271.9791,5.0453e-05,5.15e-06,0.0,0 STARLINK-3643,1 51992U 22025AN  24037.70913699  .00000515  00000-0  50453-4 0  9999,2 51992  53.2165 199.7841 0001317  88.1352 271.9791 15.08846529105873,6917.86,95.437,540.637,538.814,0.0
51992.0,STARLINK-3643,PAYLOAD,2024-02-07 13:41:10,15.08838511,0.0001367,53.2166,195.9191,87.725,272.3898,1.9552e-05,2.3e-07,0.0,0 STARLINK-3643,1 51992U 22025AN  24038.57026275  .00000023  00000-0  19552-4 0  9999,2 51992  53.2166 195.9191 0001367  87.7250 272.3898 15.08838511106008,6917.885,95.438,540.696,538.804,0.0
51992.0,STARLINK-3643,PAYLOAD,2024-02-07 16:51:57,15.08832881,0.0001297,53.2165,195.3237,95.4486,264.6654,0.00013129,1.802e-05,0.0,0 STARLINK-3643,1 51992U 22025AN  24038.70274350  .00001802  00000-0  13129-3 0  9992,2 51992  53.2165 195.3237 0001297  95.4486 264.6654 15.08832881107572,6917.902,95.438,540.664,538.87,0.0
51992.0,STARLINK-3643,PAYLOAD,2024-02-08 13:31:57,15.08840117,0.000144,53.217,191.4586,98.0558,262.0597,3.8879e-05,3.31e-06,0.0,0 STARLINK-3643,1 51992U 22025AN  24039.56386116  .00000331  00000-0  38879-4 0  9997,2 51992  53.2170 191.4586 0001440  98.0558 262.0597 15.08840117106153,6917.88,95.438,540.741,538.749,0.0
51992.0,STARLINK-3643,PAYLOAD,2024-02-08 16:42:43,15.08842559,0.0001491,53.2174,190.8641,98.9266,261.1895,5.7454e-05,6.27e-06,0.0,0 STARLINK-3643,1 51992U 22025AN  24039.69633901  .00000627  00000-0  57454-4 0  9996,2 51992  53.2174 190.8641 0001491  98.9266 261.1895 15.08842559107720,6917.873,95.437,540.769,538.706,0.0
51992.0,STARLINK-3643,PAYLOAD,2024-02-09 10:11:58,15.08836373,0.0001503,53.2174,187.5934,99.1101,261.0061,5.5254e-05,5.91e-06,0.0,0 STARLINK-3643,1 51992U 22025AN  24040.42498364  .00000591  00000-0  55254-4 0  9997,2 51992  53.2174 187.5934 0001503  99.1101 261.0061 15.08836373107836,6917.891,95.438,540.796,538.717,0.0
51992.0,STARLINK-3643,PAYLOAD,2024-02-09 13:22:44,15.08838839,0.0001439,53.2182,187.0008,91.5615,268.5542,8.6108e-05,1.083e-05,0.0,0 STARLINK-3643,1 51992U 22025AN  24040.55746189  .00001083  00000-0  86108-4 0  9991,2 51992  53.2182 187.0008 0001439  91.5615 268.5542 15.08838839106302,6917.884,95.438,540.744,538.753,0.0
51992.0,STARLINK-3643,PAYLOAD,2024-02-10 08:27:22,15.08850484,0.0001737,53.2186,183.4355,98.1829,261.9361,-7.6936e-05,-1.513e-05,0.0,0 STARLINK-3643,1 51992U 22025AN  24041.35234243 -.00001513  00000-0 -76936-4 0  9991,2 51992  53.2186 183.4355 0001737  98.1829 261.9361 15.08850484107972,6917.848,95.437,540.915,538.512,0.0
51992.0,STARLINK-3643,PAYLOAD,2024-02-10 13:13:32,15.08837222,0.0001347,53.2182,182.5396,94.5911,265.5235,1.174e-05,-1.01e-06,0.0,0 STARLINK-3643,1 51992U 22025AN  24041.55106732 -.00000101  00000-0  11740-4 0  9997,2 51992  53.2182 182.5396 0001347  94.5911 265.5235 15.08837222106459,6917.889,95.438,540.686,538.822,0.0
51992.0,STARLINK-3643,PAYLOAD,2024-02-10 16:24:18,15.08840181,0.0001377,53.2182,181.9446,92.0536,268.0614,3.8353e-05,3.23e-06,0.0,0 STARLINK-3643,1 51992U 22025AN  24041.68354483  .00000323  00000-0  38353-4 0  9993,2 51992  53.2182 181.9446 0001377  92.0536 268.0614 15.08840181108029,6917.88,95.438,540.697,538.792,0.0
51992.0,STARLINK-3643,PAYLOAD,2024-02-11 09:53:33,15.08835335,0.0001573,53.2178,178.6728,107.8154,252.3009,-2.3795e-05,-6.67e-06,0.0,0 STARLINK-3643,1 51992U 22025AN  24042.41219123 -.00000667  00000-0 -23795-4 0  9993,2 51992  53.2178 178.6728 0001573 107.8154 252.3009 15.08835335108130,6917.895,95.438,540.848,538.671,0.0
51992.0,STARLINK-3643,PAYLOAD,2024-02-11 14:39:42,15.08836278,0.0001533,53.2175,177.7805,105.4688,254.6473,-1.655e-05,-5.51e-06,0.0,0 STARLINK-3643,1 51992U 22025AN  24042.61091121 -.00000551  00000-0 -16550-4 0  9994,2 51992  53.2175 177.7805 0001533 105.4688 254.6473 15.08836278106613,6917.892,95.438,540.817,538.696,0.0
51992.0,STARLINK-3643,PAYLOAD,2024-02-11 16:15:05,15.08839628,0.0001378,53.2178,177.4846,77.9719,282.1427,3.1636e-05,2.16e-06,0.0,0 STARLINK-3643,1 51992U 22025AN  24042.67714913  .00000216  00000-0  31636-4 0  9999,2 51992  53.2178 177.4846 0001378  77.9719 282.1427 15.08839628106621,6917.882,95.438,540.7,538.793,0.0
51992.0,STARLINK-3643,PAYLOAD,2024-02-12 14:30:29,15.08846088,0.0001577,53.2171,173.3164,62.7106,297.4046,7.1296e-05,8.47e-06,0.0,0 STARLINK-3643,1 51992U 22025AN  24043.60450577  .00000847  00000-0  71296-4 0  9992,2 51992  53.2171 173.3164 0001577  62.7106 297.4046 15.08846088106764,6917.862,95.437,540.818,538.636,0.0
51992.0,STARLINK-3643,PAYLOAD,2024-02-12 17:41:14,15.08855314,0.0001573,53.2179,172.7194,105.2236,254.893,0.00014216,1.976e-05,0.0,0 STARLINK-3643,1 51992U 22025AN  24043.73697640  .00001976  00000-0  14216-3 0  9992,2 51992  53.2179 172.7194 0001573 105.2236 254.8930 15.08855314108337,6917.834,95.437,540.787,538.61,0.0
51992.0,STARLINK-3643,PAYLOAD,2024-02-13 07:59:44,15.08833605,0.0001346,53.2168,170.0495,75.1334,284.9807,3.4001e-07,-2.82e-06,0.0,0 STARLINK-3643,1 51992U 22025AN  24044.33315759 -.00000282  00000-0  34001-6 0  9994,2 51992  53.2168 170.0495 0001346  75.1334 284.9807 15.08833605108428,6917.9,95.438,540.696,538.834,0.0
51992.0,STARLINK-3643,PAYLOAD,2024-02-13 14:21:17,15.08836286,0.0001328,53.2168,168.8599,85.9295,274.1849,2.0842e-05,4.4e-07,0.0,0 STARLINK-3643,1 51992U 22025AN  24044.59811588  .00000044  00000-0  20842-4 0  9994,2 51992  53.2168 168.8599 0001328  85.9295 274.1849 15.08836286106910,6917.892,95.438,540.675,538.838,0.0
51992.0,STARLINK-3643,PAYLOAD,2024-02-13 15:56:40,15.08840782,0.0001348,53.2165,168.5624,83.0261,277.0884,5.8795e-05,6.48e-06,0.0,0 STARLINK-3643,1 51992U 22025AN  24044.66435227  .00000648  00000-0  58795-4 0  9992,2 51992  53.2165 168.5624 0001348  83.0261 277.0884 15.08840782108477,6917.878,95.438,540.676,538.81,0.0
51992.0,STARLINK-3643,PAYLOAD,2024-02-14 14:12:03,15.08854596,0.0001415,53.2164,164.3987,101.0282,259.087,-5.0322e-05,-1.089e-05,0.0,0 STARLINK-3643,1 51992U 22025AN  24045.59170500 -.00001089  00000-0 -50322-4 0  9995,2 51992  53.2164 164.3987 0001415 101.0282 259.0870 15.08854596107068,6917.836,95.437,540.68,538.722,0.0
51992.0,STARLINK-3643,PAYLOAD,2024-02-14 17:22:48,15.08868786,0.0001365,53.2172,163.8036,82.277,277.8377,0.00012149,1.648e-05,0.0,0 STARLINK-3643,1 51992U 22025AN  24045.72417079  .00001648  00000-0  12149-3 0  9998,2 51992  53.2172 163.8036 0001365  82.2770 277.8377 15.08868786108632,6917.792,95.436,540.602,538.713,0.0
51992.0,STARLINK-3643,PAYLOAD,2024-02-15 01:19:45,15.08845155,0.0001127,53.217,162.3178,89.4944,270.6177,-7.3646e-05,-1.46e-05,0.0,0 STARLINK-3643,1 51992U 22025AN  24046.05538590 -.00001460  00000-0 -73646-4 0  9991,2 51992  53.2170 162.3178 0001127  89.4944 270.6177 15.08845155108688,6917.865,95.437,540.509,538.95,0.0
51992.0,STARLINK-3643,PAYLOAD,2024-02-15 10:52:05,15.08834824,0.0001492,53.2169,160.5314,100.782,259.3341,-1.2869e-05,-4.93e-06,0.0,0 STARLINK-3643,1 51992U 22025AN  24046.45283631 -.00000493  00000-0 -12869-4 0  9993,2 51992  53.2169 160.5314 0001492 100.7820 259.3341 15.08834824108748,6917.896,95.438,540.793,538.729,0.0
51992.0,STARLINK-3643,PAYLOAD,2024-02-15 14:02:51,15.08835359,0.000148,53.2173,159.9371,100.0575,260.0584,-9.4515e-06,-4.38e-06,0.0,0 STARLINK-3643,1 51992U 22025AN  24046.58531630 -.00000438  00000-0 -94515-5 0  9990,2 51992  53.2173 159.9371 0001480 100.0575 260.0584 15.08835359107218,6917.895,95.438,540.783,538.736,0.0
51992.0,STARLINK-3643,PAYLOAD,2024-02-15 17:13:37,15.0883612,0.0001693,53.218,159.341,109.9484,250.169,4.4093e-05,4.14e-06,0.0,0 STARLINK-3643,1 51992U 22025AN  24046.71779388  .00000414  00000-0  44093-4 0  9996,2 51992  53.2180 159.3410 0001693 109.9484 250.1690 15.08836120107234,6917.892,95.438,540.928,538.586,0.0
51992.0,STARLINK-3643,PAYLOAD,2024-02-16 12:18:16,15.08802343,0.0001232,53.2174,155.7753,121.5369,238.5744,0.00033603,5.059e-05,0.0,0 STARLINK-3643,1 51992U 22025AN  24047.51268718  .00005059  00000-0  33603-3 0  9999,2 51992  53.2174 155.7753 0001232 121.5369 238.5744 15.08802343108903,6917.995,95.44,540.713,539.008,0.0
51992.0,STARLINK-3643,PAYLOAD,2024-02-16 13:53:39,15.08832071,0.000114,53.217,155.4783,80.6335,279.4786,-0.00021798,-3.754e-05,0.0,0 STARLINK-3643,1 51992U 22025AN  24047.57892925 -.00003754  00000-0 -21798-3 0  9992,2 51992  53.2170 155.4783 0001140  80.6335 279.4786 15.08832071107365,6917.905,95.438,540.558,538.981,0.0
